<?xml version="1.0" encoding="utf-8" ?>
<kml xmlns="http://www.opengis.net/kml/2.2">
<Document id="root_doc">
<Schema name="Alaotra_Ramsar" id="Alaotra_Ramsar">
	<SimpleField name="v_idris" type="int"></SimpleField>
</Schema>
<Folder><name>Alaotra_Ramsar</name>
  <Placemark id="Alaotra_Ramsar.1">
	<Style><LineStyle><color>ff0000ff</color></LineStyle><PolyStyle><fill>0</fill></PolyStyle></Style>
	<ExtendedData><SchemaData schemaUrl="#Alaotra_Ramsar">
		<SimpleData name="v_idris">38292281</SimpleData>
	</SchemaData></ExtendedData>
      <MultiGeometry><Polygon><outerBoundaryIs><LinearRing><coordinates>48.7861801474801,-17.4074330097537 48.786182330603,-17.4074308190521 48.7869263796794,-17.4117964464914 48.7876297853649,-17.4142585905781 48.7911277235715,-17.426333430271 48.7933764289171,-17.4291392234054 48.7942253534328,-17.4301519832933 48.7944031469482,-17.4312356020532 48.7952710380992,-17.4337272233912 48.7962334588199,-17.4359187557919 48.7969389622003,-17.4372478933955 48.7977569446338,-17.4396771457091 48.7986967784516,-17.4413811422724 48.7999289634888,-17.4467007087052 48.7995365878944,-17.4480585566571 48.7985951900599,-17.4513425619325 48.7977667400762,-17.4519345550723 48.7961417986032,-17.4530552145951 48.7951404999383,-17.4542314337577 48.7926215360835,-17.4546702928163 48.791320871643,-17.4546941136931 48.7899806699233,-17.454897881118 48.789379338361,-17.4549602992366 48.7871915823081,-17.4545749192204 48.7835563221535,-17.4541184336457 48.7805135915559,-17.4530425597234 48.7772698865718,-17.4501732746047 48.7745596278176,-17.4472121710684 48.7704407834797,-17.4421840183903 48.7691339461566,-17.4408623347385 48.7669811078993,-17.4396903236526 48.7643894428579,-17.4390364719638 48.7615478776704,-17.4397536770776 48.7584379984273,-17.4403884544013 48.7568552333576,-17.4420315755747 48.7550246306819,-17.4452167693984 48.7542489464475,-17.4475439442259 48.7542695218981,-17.4475822771349 48.7537045353309,-17.4492032506832 48.7537212394332,-17.4491553271815 48.7537318693062,-17.4491463068022 48.7536356032636,-17.449401018916 48.7532727927133,-17.4504419248104 48.7526127933786,-17.4501034123324 48.7532471693766,-17.4504287831663 48.7522564738754,-17.453050032187 48.7518356538187,-17.4534797664476 48.751427513264,-17.4549164062228 48.7481823151529,-17.4654022095627 48.7437137533859,-17.4685852643157 48.736061378825,-17.4741495290292 48.723796533608,-17.4780199116426 48.7215859217199,-17.4787016726953 48.7169852176951,-17.4800963601153 48.7092084932508,-17.482416987477 48.7072005238585,-17.4830562128643 48.7025607017061,-17.4844150836267 48.7004859990119,-17.4850366196902 48.6992472467002,-17.4856636572018 48.696935087622,-17.4869494630572 48.6924357402368,-17.4893041604892 48.6899270242781,-17.4907715130564 48.6849293934927,-17.493379554746 48.6840361571669,-17.504520104972 48.6842707169201,-17.508167736774 48.6844877963492,-17.5121883677147 48.6832377201002,-17.5121885402643 48.6844151635184,-17.5125971060176 48.6857193312485,-17.5294154396235 48.6909044781281,-17.532786101466 48.6969656453127,-17.5364812308717 48.7009949316525,-17.54505058965 48.7031151011134,-17.5472847773399 48.704021067507,-17.5500346470579 48.7041372751753,-17.552375309963 48.7043489642568,-17.5553840207611 48.7036251914111,-17.5595037300264 48.7033681272757,-17.5606646789051 48.7009539637213,-17.5628669088053 48.7005284063621,-17.5637081823371 48.700196242995,-17.5650502441107 48.6981483215732,-17.5686701905097 48.6962478108624,-17.5701137412886 48.6945126312087,-17.5727654677312 48.6946491431334,-17.5748158940336 48.6946667162946,-17.5762376128868 48.6925834606056,-17.5770140740275 48.6892836449061,-17.5781388925747 48.6868660026224,-17.5800900861292 48.6852505509922,-17.5834540890243 48.6853180097433,-17.5860364892719 48.6848487913622,-17.5855195287622 48.6847469243304,-17.585937664257 48.6852252649373,-17.5863877341089 48.6844693447755,-17.5887382824253 48.6848449078505,-17.5909087270523 48.6838129598981,-17.5920914082407 48.6821276622085,-17.5968780963607 48.682177064265,-17.6008923610659 48.681596496847,-17.6033245540062 48.6809091632749,-17.6041687537578 48.6790758394755,-17.6040222060125 48.6761817031182,-17.6027166309235 48.6742458029939,-17.6013165613479 48.6715353623763,-17.6007616238632 48.6696425105003,-17.6028740064178 48.6685631110822,-17.6073192082565 48.6685815351883,-17.6088245647799 48.6693909638034,-17.6108228681579 48.6676744571997,-17.6131005347585 48.6657824686233,-17.615296519586 48.6637160159505,-17.6174944490892 48.6625955612792,-17.6185943868049 48.6592716797465,-17.6163494870874 48.6572379992518,-17.6155597097061 48.6544106610491,-17.6125802264187 48.6515205923204,-17.6116088263505 48.6503828261738,-17.611286964281 48.6503402659852,-17.6111314250357 48.650051238307,-17.6111931566641 48.6500953395662,-17.611284298821 48.6480074220598,-17.6117258178071 48.6455757267816,-17.6125893622086 48.6431581807384,-17.6146237251018 48.6423063260761,-17.6163060699211 48.6409241073434,-17.6174088093575 48.639105813942,-17.6185163883495 48.6358860432764,-17.6191376533965 48.6329299013108,-17.6199232325318 48.6320613841926,-17.6198920431635 48.6264323523717,-17.6200860513992 48.6239734109893,-17.6201132154984 48.6208457938667,-17.6219011369518 48.6211956382799,-17.6218664338833 48.6201116343628,-17.6223208122483 48.6195193692475,-17.622659371799 48.6193750058332,-17.6226295781127 48.6145829202007,-17.6246381441833 48.6109138812482,-17.6265191800265 48.5997132269517,-17.6283409774803 48.5980322605332,-17.6287127760926 48.5952140645432,-17.63171344527 48.5894395823486,-17.6376314293502 48.5852130673655,-17.6416922884931 48.582727330615,-17.6441004106699 48.582727331556,-17.6441004099754 48.5817704155394,-17.645038904039 48.5785755325385,-17.6484558064604 48.5769349277489,-17.6498955186207 48.5762091973921,-17.6495540890948 48.5726292632075,-17.6472654325139 48.5705404606514,-17.6461271812935 48.5704181976035,-17.6461920144141 48.5647671422708,-17.6429114648304 48.5647268560437,-17.6429174258943 48.5604244413255,-17.6405379534219 48.5571363988425,-17.640834382597 48.5571366219859,-17.6408400885774 48.5484008542506,-17.6417228055375 48.5477081234303,-17.6418026989152 48.5474702108096,-17.64437242132 48.5472519859289,-17.6463393472491 48.5467461286535,-17.6515937410067 48.5467064792126,-17.6516101827464 48.5467063683203,-17.6516114649278 48.5473846642614,-17.6542997614421 48.5474126073556,-17.6543950582104 48.5486355873188,-17.6591537499807 48.5486978491257,-17.6591480278904 48.5504222060764,-17.6661858393769 48.5504303401908,-17.6661841887814 48.5505079729098,-17.6665358720961 48.5504772193476,-17.6664103613685 48.551005307163,-17.6685655675671 48.5509761652806,-17.6686825254545 48.5509889972745,-17.6687443622599 48.5509520312302,-17.6687793862258 48.5509232049279,-17.6688950782131 48.5509238037025,-17.6688948110929 48.5509193838417,-17.6689104129712 48.5504516915928,-17.670787442041 48.5504782548393,-17.6707972997642 48.5497600038818,-17.6736882357896 48.5498127225796,-17.6736728386629 48.5475486302409,-17.6827267730292 48.547376552467,-17.6835181260659 48.547350042888,-17.6835208714106 48.5465690440814,-17.686643824887 48.5462149845372,-17.6874241172578 48.5462300793162,-17.6874499357015 48.5455837628904,-17.6888152158375 48.5451582605698,-17.6897529351021 48.5451417859986,-17.6897488369397 48.5451409445545,-17.689750614808 48.5451315210942,-17.6897494583852 48.5451304384197,-17.6897532321598 48.543990712805,-17.6922459670006 48.5438901858154,-17.6922722537728 48.544443020369,-17.6911486089634 48.5437235162007,-17.6926110092038 48.5431557390354,-17.6936867157997 48.5429606124886,-17.6941808359087 48.5428961500441,-17.6943954531225 48.5421521948784,-17.6940202003937 48.5428886145417,-17.694391652228 48.5425214170423,-17.695115629902 48.5424902937677,-17.6951340530568 48.5368422108729,-17.7067005501931 48.5366555067517,-17.7081136800041 48.5366377464874,-17.7081023360277 48.5361330236806,-17.7113752451346 48.5362923542145,-17.7114170491807 48.5351301697706,-17.7183219260422 48.5352174024073,-17.7183310919683 48.5340027449244,-17.7249210149421 48.532705225348,-17.7326052754766 48.5326046318309,-17.7332340829155 48.5329365402004,-17.7443377180444 48.5329390951259,-17.7444341575091 48.5329440399878,-17.7445407570869 48.5330082908877,-17.7470457508729 48.5331780431621,-17.7534517323407 48.5331074596053,-17.7534496894678 48.5331455559686,-17.7558625334836 48.5329824938255,-17.7556792139963 48.533247884376,-17.7561129851442 48.5333805723811,-17.7606282314438 48.5334060425758,-17.7607399207027 48.5333840421661,-17.7607462949196 48.5340260317448,-17.7825848064174 48.5409875938341,-17.7990047566324 48.5408360988338,-17.7988162598626 48.5409841291119,-17.7990921346948 48.5417822454941,-17.8007807402433 48.5403739275735,-17.7984797874327 48.5421877893061,-17.8014433172415 48.5404633055119,-17.806149231928 48.5421474491919,-17.8015534039564 48.5421574615765,-17.8015745864891 48.540699811706,-17.8067350925072 48.5407205940552,-17.8067516676351 48.5399660008546,-17.8090701171513 48.5363583132146,-17.8214520756471 48.5328535237999,-17.836956144307 48.5320717317868,-17.8407937049225 48.5311767531428,-17.8445041149824 48.5286810041839,-17.8565531659383 48.5251386613047,-17.8727633981511 48.5250408051545,-17.872763610409 48.5250825265972,-17.8729524312557 48.525251837152,-17.8728905460084 48.5279786667258,-17.8782917831504 48.5280994947191,-17.8782786128392 48.5315694920443,-17.8851238012445 48.5332342524711,-17.8885418679255 48.5330959688147,-17.8884658875529 48.5346184534322,-17.8893024128617 48.5399930836651,-17.8922404616007 48.5462719654928,-17.8956790204156 48.5461971505488,-17.8957891285643 48.5476271675486,-17.9025570119585 48.5486769190999,-17.9073788509427 48.5487883255137,-17.9074831359422 48.5487933886189,-17.9079138128972 48.5490442947904,-17.9090662492879 48.5488170906132,-17.9099298196798 48.5488200023088,-17.9101774635291 48.548720860748,-17.9106244466534 48.5487420861298,-17.9106309666786 48.5445364026616,-17.9285812957126 48.5450580036419,-17.9304390082411 48.5451641920236,-17.9304542322472 48.5467655243808,-17.9359296780539 48.5466902959298,-17.9361030685734 48.5473102774111,-17.9383274186337 48.5485460456874,-17.9388916676818 48.5627707122892,-17.9455188385549 48.5732773319817,-17.9551375344752 48.5709286264875,-17.9624789989739 48.5661277956289,-17.972264362635 48.5608410230899,-17.9783399919603 48.5574832786528,-17.9821769205232 48.5504004106866,-17.9881148609796 48.5424971088444,-17.9946603758727 48.5339796763854,-18.0003565436952 48.5276792791676,-18.0045098585181 48.5248230678491,-18.0087973194544 48.5250989443885,-18.011361342612 48.5257604620632,-18.0124880115718 48.5248315792471,-18.0133536051217 48.5247123349064,-18.0133919306118 48.5229208386809,-18.0143794304043 48.5228844858235,-18.017010964988 48.5239537810201,-18.0205077253946 48.5255867127322,-18.0205758217089 48.527037799367,-18.0203891558334 48.528251989401,-18.0209751077461 48.5287849432336,-18.0225737470685 48.5292907916165,-18.0237662397259 48.5304625255417,-18.0244985623934 48.5300445654342,-18.0251272011147 48.5272900529746,-18.0247502919454 48.5280147478697,-18.0312668814428 48.5297223186112,-18.0338797005801 48.5319866094804,-18.0362939994474 48.5348583795676,-18.0390226022733 48.5391606229506,-18.0416929597309 48.5438075598206,-18.0470333782666 48.5441411538276,-18.0506662567853 48.5438436588901,-18.0538781313628 48.5428057700212,-18.0568840922069 48.5412348998692,-18.0583128646836 48.5393743353128,-18.0598303162292 48.5367982157268,-18.0613554620033 48.5363959857464,-18.0613811862508 48.5308238082027,-18.0572484698114 48.5250036738443,-18.0529257099833 48.5239666421334,-18.0522095136703 48.493855812818,-18.0221108093371 48.4882896595473,-18.0220998031845 48.4786576223675,-18.022464266669 48.4778899910691,-18.0221979781163 48.4766184616131,-18.0222062293768 48.4758614895867,-18.0219397719681 48.4748627534513,-18.0222116230122 48.4748970514289,-18.0222242216372 48.4608632130692,-18.0248518078417 48.4449066012748,-18.0382309920432 48.4324072488284,-18.049489233358 48.4225567812799,-18.0605426117403 48.4163837990173,-18.0705527572349 48.416072829171,-18.0767809851751 48.4155986346322,-18.0864335731254 48.4173256844565,-18.0923822878272 48.4197642527962,-18.1009590021996 48.4195506874423,-18.1069562889342 48.4189797159669,-18.1168610882196 48.4184076832378,-18.1177225919423 48.415387523998,-18.1217322320337 48.4102842631226,-18.1255276972656 48.4038908290502,-18.1219345491332 48.3872258257554,-18.1221025973027 48.3850631261221,-18.1207338244245 48.3756038759007,-18.1149456607148 48.3665283831851,-18.1053025925744 48.3635727058592,-18.0905926591433 48.362927239043,-18.088823493858 48.358703093344,-18.0767144317731 48.3581217336396,-18.075064654303 48.3580492119139,-18.0749537395188 48.3579052505211,-18.0747991471779 48.35036005205,-18.0725182030598 48.3365152394707,-18.0787721987911 48.335703987454,-18.0823954643141 48.3351270798939,-18.0849254184837 48.3342057798392,-18.0887208910075 48.3295121886249,-18.0995698816359 48.3296672899904,-18.1057294062925 48.3298217345071,-18.1118247504439 48.3185419784354,-18.1155924992038 48.3120133529757,-18.1096015695001 48.3101102424247,-18.1059377360585 48.3039007035949,-18.0937970171616 48.2924472622429,-18.0914666393075 48.2862118679172,-18.1001835126051 48.2763267737812,-18.1075643461667 48.2718873164235,-18.1075395082888 48.267413935452,-18.1076151704152 48.270058720312,-18.106601543863 48.2699312830529,-18.1065790114287 48.2668547185381,-18.1076204431455 48.2572431614986,-18.1077108208813 48.2484141349256,-18.1091304936743 48.2457275662621,-18.1095626313193 48.2456823842703,-18.109696589032 48.2406553078072,-18.1104957304981 48.2315612944909,-18.1171132003861 48.2308164194022,-18.1179849370094 48.2307193633069,-18.1180279924711 48.2261505016577,-18.1232695376462 48.2185583880009,-18.1350761214339 48.2070100151786,-18.1448120403924 48.1933212481064,-18.1450662287531 48.1933315701793,-18.1451031049785 48.1915460324897,-18.1450991227236 48.1911172627169,-18.1451070657608 48.191106243665,-18.1450981396621 48.1844508738643,-18.1450831407464 48.1771971564941,-18.1434102356923 48.1741488081963,-18.1427356281234 48.1664463669049,-18.138057883798 48.1624128282964,-18.1259597168535 48.1614629819407,-18.1217563143904 48.1594501377285,-18.1124813641504 48.1556395479199,-18.1124483261068 48.1503329935508,-18.1153730535347 48.1499582380304,-18.1156330607624 48.1497681406361,-18.1156392864559 48.1407548630333,-18.1204352289405 48.1393989896224,-18.1212159816711 48.1328183800222,-18.1203377065869 48.1303683014757,-18.1200248547598 48.1189271070337,-18.1153108857041 48.1135094662383,-18.108003668361 48.1032804417299,-18.1056850541809 48.0932711177762,-18.1118882198851 48.0846921545441,-18.1253660977286 48.0814078626724,-18.1293385450929 48.0773608423552,-18.1340193988151 48.0776487681913,-18.1462182403626 48.0791841817108,-18.1534256813114 48.0742303533766,-18.1621923965382 48.0783063247677,-18.1718519571554 48.0849594833199,-18.1803194584159 48.0939570064119,-18.1851229831126 48.089002464093,-18.1900792698483 48.0829148146768,-18.1973181816479 48.0812039754858,-18.1985266327719 48.0754416359653,-18.2022955938721 48.0677022588206,-18.2012245561066 48.0601285879553,-18.1991489780097 48.0550785396918,-18.1976536715772 48.0531903796165,-18.1977029110755 48.0409156135104,-18.1978386838406 48.0333326841508,-18.2014743020058 48.0288445811374,-18.2128930308239 48.0261582545553,-18.2213269940299 48.0249663127571,-18.2249136132267 48.021102834114,-18.2349367212256 48.0203575861153,-18.2404174335861 48.0203596797163,-18.2416655062895 48.0203529580677,-18.2416576877401 48.0203535658408,-18.2417252468197 48.0203602811208,-18.2417323571521 48.0204304481731,-18.2456428533802 48.0131169740087,-18.2493464539321 48.0067834758391,-18.2452865017591 48.0038627423291,-18.243371440156 47.9977623175713,-18.2356928407972 47.9898135073607,-18.2256422347798 47.9829435255848,-18.2167342866573 47.9739086471592,-18.2108533838343 47.9671260746414,-18.2008643697498 47.9661609668412,-18.1969838037709 47.9643635424485,-18.1900324405706 47.9793814347782,-18.1825424640742 47.9792973008382,-18.1777644175208 47.9751647887035,-18.1702648028338 47.9737779099829,-18.1618118017037 47.9774214973892,-18.1570040449338 47.988825469165,-18.153187018961 47.9953351104315,-18.1468170086865 47.9962572865017,-18.1457161355137 47.9948814598761,-18.1385996180893 47.9831796457582,-18.1324568440267 47.9760771843525,-18.1291116535175 47.9731002540644,-18.1277178836743 47.9665042580703,-18.1241253139104 47.9673728804359,-18.1119284612395 47.9697554068666,-18.1034049546503 47.9748345664994,-18.0982213834061 47.9778160041298,-18.0953222988013 47.9821826542878,-18.0910351819914 47.9831314428492,-18.0881522276412 47.9856957700729,-18.081166023705 47.9832579529763,-18.0735312864535 47.9804439115782,-18.0664259743548 47.9784541816094,-18.061581972647 47.977846832333,-18.0599714034001 47.976971300029,-18.0587958899144 47.9765696465404,-18.0563948762961 47.9748472914058,-18.0508784568513 47.9717607697005,-18.0464480380165 47.9681583942901,-18.0410901574992 47.9671251003958,-18.0341729886228 47.9666256426684,-18.0302485226108 47.9638219400049,-18.019254847544 47.9595272978369,-18.0115724236282 47.9549155195001,-18.002355490377 47.9516878841258,-17.9961032785037 47.9450614002845,-17.9782945153493 47.9422454003266,-17.9705808970991 47.9507729933004,-17.95820275386 47.9595954120161,-17.9557038991171 47.963361103146,-17.9507334207163 47.9676402086358,-17.9464473327455 47.9719198090796,-17.9422421531633 47.9781484450607,-17.9334854987468 47.9805461621495,-17.9249328541941 47.9929552425054,-17.9187878654985 47.9903318255079,-17.9138678356479 47.9906399334714,-17.9103823994462 47.9931112673681,-17.9105784301469 47.993058124251,-17.9103503054534 47.9907296909867,-17.9103688859977 47.99126493429,-17.9044239454799 47.9936420567794,-17.8956570093032 47.9956359247584,-17.8914695925956 47.998462514685,-17.8857769942823 47.9947655704592,-17.8789620667714 47.9918438858141,-17.8737203725357 47.9886146090606,-17.872004580167 47.9897697531679,-17.8708451123895 47.9897261575807,-17.8708114362501 47.9885180201873,-17.8719877126649 47.9802874085141,-17.8676561142328 47.9674421862484,-17.8641122785302 47.9647117677113,-17.8464754666571 47.9628803861035,-17.8350281150784 47.9605251087611,-17.826581854914 47.9600036205306,-17.8249253912312 47.9599551440566,-17.8241967545943 47.9597969046147,-17.8228520356136 47.959872665859,-17.8228557113959 47.9584148740112,-17.8132346999472 47.9609153862504,-17.8034176871178 47.9604842325496,-17.7998149592115 47.9591142009615,-17.7941498364581 47.9579800440772,-17.7873519343649 47.9575192627195,-17.7725971655768 47.9613410658016,-17.7665218339156 47.9620180444433,-17.7653194115049 47.9638056790629,-17.762492175763 47.9695578397443,-17.7557431939279 47.9717236856776,-17.7515714704502 47.9755225508228,-17.7446826551237 47.9806921054863,-17.7356633659388 47.984471834395,-17.7289332004152 47.9940766454025,-17.7300066019377 47.9982494896762,-17.7270996758991 47.998234388241,-17.7196624792771 47.9991393353761,-17.7123875760514 47.996291635653,-17.7050125577714 47.9909063699039,-17.6931239383322 47.9934459154094,-17.6883101891811 47.9947277792836,-17.6861316544062 47.9971023909476,-17.6820958358971 48.0025784778815,-17.6811244300136 48.0091835720189,-17.6801438367963 48.0165950578655,-17.6791565416301 48.0226849674275,-17.6810974544697 48.0238749583706,-17.681506841311 48.0285704225323,-17.6829054076187 48.0386183047227,-17.6807946523867 48.0402233685851,-17.6802367358427 48.0439943830307,-17.67661473046 48.0439796574611,-17.6749608393603 48.0438108509963,-17.6748546562018 48.0437363163947,-17.6748077723934 48.0435804621539,-17.666789809177 48.0459829370931,-17.6614239844453 48.0487284073416,-17.6553124227256 48.0505378786792,-17.6507376266216 48.0532241877783,-17.643928022689 48.0538797229188,-17.6422020710661 48.0542418285329,-17.6413482436955 48.0542979047717,-17.6412060847616 48.0544895513427,-17.6403314844219 48.056527445229,-17.6288185919018 48.0563843639496,-17.6247253645653 48.0563492184774,-17.6229317162136 48.0562527532996,-17.6225475941027 48.0563373487572,-17.6223259263091 48.0562629141561,-17.6185268194114 48.0557076173004,-17.6145662313768 48.0540292255597,-17.6074105503416 48.0525906288255,-17.6031684976247 48.0495132881447,-17.5974697107425 48.0489252986534,-17.5964747579318 48.0488122675936,-17.5961714627035 48.0472346217475,-17.5932496758813 48.046677399622,-17.592322690607 48.0411055886357,-17.5878319551339 48.0376191384916,-17.58514669844 48.0378173778341,-17.5836870161842 48.0385501336771,-17.5753868729553 48.0385769545588,-17.5749104168666 48.0386004498187,-17.574816908663 48.0386618239661,-17.5741216793299 48.0390320330282,-17.5730992668536 48.0396670880781,-17.5705717793287 48.0419634570937,-17.5650031015774 48.0420410978915,-17.5647886594146 48.0432554815634,-17.5570893258003 48.0433091372798,-17.557087632602 48.0433237154914,-17.5569918522937 48.0473965963141,-17.5569586156806 48.0498627646334,-17.5568807329545 48.0499769186357,-17.556937516481 48.0508385433612,-17.5569304636554 48.059917040162,-17.5617566624761 48.0660864697985,-17.562313297978 48.0660944294597,-17.5623140870185 48.0669984889128,-17.5623066133051 48.0702839358151,-17.5627291227959 48.0703964702936,-17.5627402701236 48.0715260294378,-17.5624594173947 48.0749230206145,-17.554301721743 48.075234570373,-17.553814187431 48.0754605705131,-17.5532677024487 48.0755844472795,-17.5532666731381 48.075963818017,-17.5526730004425 48.0760074105744,-17.5527005543742 48.0759968268585,-17.5525738643111 48.0761677025486,-17.5524801929295 48.0761301247451,-17.5523881049708 48.0810090679321,-17.5456892306891 48.0819160844608,-17.533952088518 48.0816966813624,-17.5237069184848 48.0880658809537,-17.5185099961645 48.0988354388235,-17.5052565157354 48.1140907006383,-17.5026164861696 48.117747493744,-17.4963886328988 48.1160399145419,-17.4805668835326 48.1195635958068,-17.4684052462975 48.1237644145055,-17.462477744878 48.1244980026136,-17.4624262491867 48.1240064019923,-17.4623065549836 48.1244128299592,-17.4616552974633 48.1293362635464,-17.454811444017 48.128608898728,-17.453198183049 48.1253206753678,-17.4463164722029 48.1213749205335,-17.4453424085142 48.1112660217308,-17.4428010062345 48.1081011831266,-17.4452030061177 48.1062760348377,-17.4465140013017 48.1000397778534,-17.4492656640867 48.0949609817579,-17.4515036024126 48.0931646646235,-17.451878536482 48.0823859429684,-17.4540558405618 48.0710258277406,-17.4541500297939 48.0694055670098,-17.4407035311485 48.0691198565112,-17.4297292215367 48.0791630032945,-17.4198345211458 48.0916703312565,-17.4111515976017 48.0953602580928,-17.4088174374233 48.0975228062399,-17.4075397040423 48.1013993395363,-17.4051318967051 48.105633489904,-17.4008495794387 48.1077133415181,-17.3987446927368 48.1087532496096,-17.3976922413273 48.1087522041493,-17.3934815354739 48.1086130994774,-17.3905675966012 48.1085292116876,-17.3854938451172 48.1069929396381,-17.3773372607001 48.1055357106258,-17.3696118507845 48.1015006339773,-17.358633033549 48.1021437011877,-17.3551726599523 48.1036382145916,-17.3464506820948 48.1213908511291,-17.3413342932474 48.1262256435934,-17.3373703861918 48.128568857922,-17.3354789968833 48.1300927308079,-17.3341344077185 48.1323619297668,-17.3323515757544 48.1343694850976,-17.3306429349892 48.1364298287226,-17.3293415935223 48.1394726714884,-17.3273962209521 48.1412974641436,-17.3261929301342 48.1454320135154,-17.3235661984039 48.1469215586456,-17.3225816774755 48.1481143922794,-17.3219236036024 48.1486352044035,-17.3215232371026 48.1486548644209,-17.3196156402625 48.1485678427461,-17.3183207779919 48.1486019477399,-17.3179605926285 48.1485216457601,-17.3173854561348 48.1478793867365,-17.3168151585607 48.1465152567248,-17.3151713919129 48.1464590085148,-17.3131564764752 48.1468182071415,-17.3114978806119 48.1477390016072,-17.3097984615769 48.1482018426788,-17.3072032493896 48.1482141292017,-17.3045039454249 48.147553464412,-17.3019543878763 48.1464874605794,-17.300128099012 48.1461228311851,-17.2971801049873 48.1465285136165,-17.290314371762 48.1479498941048,-17.2801773810326 48.147361232886,-17.277303282308 48.1461445568012,-17.2753703031095 48.1444399844105,-17.2733335336217 48.1427732381691,-17.271332412054 48.1421051060925,-17.2679551149467 48.1415958297715,-17.2655481723217 48.14100698896,-17.2626380526182 48.1393367115456,-17.26024103641 48.1393631623336,-17.259053150156 48.1411829817473,-17.2573820503579 48.1432278133818,-17.2557449971055 48.1436772346954,-17.2557411445411 48.1459173129947,-17.2549661436536 48.1463921358344,-17.253666438303 48.1454331097729,-17.2512273704605 48.1444319807925,-17.2482848005626 48.1449790258506,-17.2466965595089 48.149751833847,-17.2444242025771 48.1516523604615,-17.2434001359337 48.1538490981577,-17.2420136027259 48.1586142633563,-17.2389493397911 48.1704168576528,-17.2315770955997 48.1718316894889,-17.2307010330249 48.1725387608182,-17.2302270116651 48.1734694878974,-17.2296430707542 48.1753683698051,-17.2284748504131 48.1787841171308,-17.2253499253932 48.1824230553332,-17.2220790347164 48.1849848733964,-17.2197532577404 48.1869536834397,-17.2180804684359 48.1876204889382,-17.2173188341529 48.1875473105961,-17.2096176978443 48.1882050182273,-17.2039615479221 48.1883802539299,-17.2027003711581 48.1887697007055,-17.2026129690324 48.1881972323613,-17.201714607911 48.1972807612611,-17.1926040656605 48.2003993250865,-17.1819513921919 48.1980097022342,-17.177789347995 48.1927102520878,-17.1696370512212 48.1927636647204,-17.1478004916664 48.1929868416353,-17.1163410132353 48.1928506022025,-17.1111550469445 48.1973904143629,-17.1036690536836 48.1951290151949,-17.0762470652415 48.193785180671,-17.062956190239 48.2196294321,-17.0551144179414 48.2317360435153,-17.0478949196367 48.2546453783773,-17.0338003652761 48.2562180678097,-17.0338234579407 48.2562432995078,-17.0337765437752 48.2547323346421,-17.0337995774935 48.2821848760105,-17.0046850885381 48.3079702689902,-17.0094664474423 48.3402534039345,-17.003306985912 48.3494639078731,-17.0027176368918 48.3488936271898,-17.0036687722661 48.3489533809682,-17.003677269573 48.3495499885022,-17.0026331558757 48.3594550555983,-17.0019530983234 48.3700197558931,-17.0027199899463 48.3757274163723,-17.003219210199 48.3872270010287,-17.0053669583417 48.4163147359791,-17.0138344529506 48.4542202307768,-17.0254546026436 48.4596599374632,-17.0299176465242 48.480716436357,-17.0469387594455 48.4792603862574,-17.0569089084946 48.4796082260917,-17.0569053782628 48.4985988311928,-17.0675872888076 48.5095509037287,-17.0826167922273 48.5222502118321,-17.0953658471438 48.522392910037,-17.09536725109 48.5475676646025,-17.0985346226354 48.569745496278,-17.0936822193781 48.5850968577967,-17.0867604654266 48.5863279435317,-17.0879185026092 48.5966951248795,-17.0968423107586 48.6032791885958,-17.0909906925646 48.6081465948708,-17.0867642854603 48.6202663334025,-17.0818650154096 48.6352765494743,-17.0934970348704 48.6450224394335,-17.1011702354361 48.6611712425457,-17.1204836816137 48.6685829580565,-17.1291851686318 48.6679455850665,-17.1295305018368 48.6680377315308,-17.1297147936612 48.6681853610982,-17.1295069463723 48.6687159392318,-17.1295010663722 48.6687832223397,-17.135113004655 48.6686831311035,-17.1488906723413 48.6680701395021,-17.1589708845188 48.6652663362142,-17.1646066122912 48.6651656896996,-17.1644016288865 48.6647519230693,-17.1651167484398 48.6648413521279,-17.1654478351177 48.6636945881037,-17.1674331891162 48.6635161057775,-17.1690170419619 48.6630367421781,-17.1692075591026 48.6623097360885,-17.1706465359668 48.6597382688969,-17.1752915266911 48.6601598781028,-17.1774194425838 48.660241254446,-17.1775212830919 48.6609102897459,-17.1804108450843 48.6615848288552,-17.1828172787376 48.661465578387,-17.1828090539919 48.6614798390782,-17.1828706423004 48.6628568518234,-17.1875127853571 48.6639315747925,-17.1884501265661 48.6733789317337,-17.1948947522807 48.6741850032412,-17.1954315848362 48.6741967242801,-17.1954425933014 48.6742194953494,-17.1954089236189 48.6754300400074,-17.1958521366222 48.6822264297352,-17.1982268647314 48.6839488595904,-17.1988313875574 48.6874519549285,-17.2000620133417 48.6880567814393,-17.2002445990197 48.688579823274,-17.2003724054462 48.7009917025806,-17.2034036146489 48.7014000560612,-17.2034808845132 48.7021206398738,-17.2036509841682 48.7044921047033,-17.2042162599091 48.7045370464809,-17.20413611759 48.7047795628209,-17.2040665484176 48.7086114109035,-17.2027868792826 48.7175801625672,-17.1998783754367 48.719460987949,-17.1982753382801 48.7282862954417,-17.1906823676723 48.7368238896577,-17.1915216805679 48.7387780898997,-17.1991467259996 48.7392216708096,-17.2004382962813 48.7410166419307,-17.2049131561914 48.7412989893993,-17.2056576196832 48.743788326858,-17.2134692033365 48.7461401596163,-17.2208604584488 48.7473724027994,-17.2239539400138 48.7544170091255,-17.2412011513106 48.7499061885655,-17.2507766075919 48.7480919556419,-17.2547323588924 48.7469438375117,-17.2584101106449 48.7460848231099,-17.2611043501938 48.7450253404612,-17.2644580580258 48.7445906410655,-17.2658553567416 48.7447999320007,-17.2714889752203 48.7448515371431,-17.2754239857647 48.7460910845522,-17.277735185669 48.7481712241452,-17.281530383486 48.7481626938105,-17.2815383752221 48.7485830082231,-17.2823202301043 48.7486096225462,-17.2822790827549 48.7583778088661,-17.3020800461474 48.7639781383324,-17.3204947811653 48.7842979054937,-17.3228507882664 48.7846703791607,-17.3325845936691 48.7800774161781,-17.3526144164948 48.7803248006528,-17.3551351699949 48.7806287791209,-17.3554450386328 48.7813404918881,-17.3670448710402 48.7810849399034,-17.3628800533444 48.7816580509414,-17.3687187216281 48.781871245168,-17.3720686131642 48.7819173750082,-17.372568813745 48.7817164855839,-17.3731719736501 48.7818292694364,-17.3750097315448 48.7819840179479,-17.3750182777145 48.7821179348541,-17.3797131105521 48.7822576599587,-17.3819895770625 48.782186481763,-17.3821159767568 48.782250107705,-17.3843461954982 48.782795499282,-17.3874288428917 48.7848222351451,-17.3997187087875 48.7861801474801,-17.4074330097537</coordinates></LinearRing></outerBoundaryIs><innerBoundaryIs><LinearRing><coordinates>48.1940218534994,-17.9804637178274 48.1940216098907,-17.9804389804163 48.1937051294394,-17.9787217112696 48.1937013495147,-17.9787246160841 48.1940218534994,-17.9804637178274</coordinates></LinearRing></innerBoundaryIs><innerBoundaryIs><LinearRing><coordinates>48.5381502158778,-17.893809860483 48.5370623873201,-17.894345287667 48.5381502149354,-17.8938098611774 48.5381502158778,-17.893809860483</coordinates></LinearRing></innerBoundaryIs><innerBoundaryIs><LinearRing><coordinates>48.5386925967647,-17.8933453242255 48.5386926005262,-17.8933453207639 48.5395044040376,-17.8925504424312 48.5386925967647,-17.8933453242255</coordinates></LinearRing></innerBoundaryIs><innerBoundaryIs><LinearRing><coordinates>48.462258302076,-17.8163602338155 48.462258303026,-17.8163602338057 48.4627290215282,-17.8163408286962 48.462258302076,-17.8163602338155</coordinates></LinearRing></innerBoundaryIs><innerBoundaryIs><LinearRing><coordinates>48.5321392003982,-17.7550715906151 48.5324391794602,-17.7550683997866 48.5323148994522,-17.7549286786193 48.5321181602533,-17.7549848115767 48.5321215015017,-17.7549838584194 48.5321392003982,-17.7550715906151</coordinates></LinearRing></innerBoundaryIs><innerBoundaryIs><LinearRing><coordinates>48.5284157840573,-17.6979218516335 48.5284090908617,-17.6979118347484 48.5283990216142,-17.6977949126881 48.5283714407287,-17.6978886120103 48.5284157840573,-17.6979218516335</coordinates></LinearRing></innerBoundaryIs><innerBoundaryIs><LinearRing><coordinates>48.536903122398,-17.693862075638 48.5367490483735,-17.6939255442136 48.536749050739,-17.6939255435041 48.536903122398,-17.693862075638</coordinates></LinearRing></innerBoundaryIs><innerBoundaryIs><LinearRing><coordinates>48.536903122398,-17.693862075638 48.5369171047463,-17.6938641569964 48.5369171052209,-17.6938641569914 48.536903122398,-17.693862075638</coordinates></LinearRing></innerBoundaryIs><innerBoundaryIs><LinearRing><coordinates>48.4222495487285,-17.6676150355732 48.422209858479,-17.6676212358634 48.4222495477867,-17.667615036267 48.4222495487285,-17.6676150355732</coordinates></LinearRing></innerBoundaryIs><innerBoundaryIs><LinearRing><coordinates>48.7526119618528,-17.450096301421 48.7526098176,-17.4500984099272 48.7526119926555,-17.450096563825 48.7526119618528,-17.450096301421</coordinates></LinearRing></innerBoundaryIs><innerBoundaryIs><LinearRing><coordinates>48.6869983791171,-17.3962157193871 48.6869671976224,-17.3962299661246 48.6869671971569,-17.3962299668141 48.6869983795994,-17.396215720066 48.6869983791171,-17.3962157193871</coordinates></LinearRing></innerBoundaryIs><innerBoundaryIs><LinearRing><coordinates>48.6545283784013,-17.1823304582631 48.6543406219458,-17.1828382351821 48.6543406265488,-17.1828382241818 48.6545283784013,-17.1823304582631</coordinates></LinearRing></innerBoundaryIs></Polygon></MultiGeometry>
  </Placemark>
</Folder>
</Document></kml>
